EUTELSAT 8 WEST B       
1 40875U 15039B   25305.60887065 -.00000054  00000+0  00000+0 0  9995
2 40875   0.0720  16.9859 0003974 208.8460  26.5122  1.00272036 37373
EUTELSAT 9B             
1 41310U 16005A   25305.61233733  .00000073  00000+0  00000+0 0  9992
2 41310   0.0590  70.6621 0004049 175.4068  24.5419  1.00270848 35839
EUTELSAT 65 WEST A      
1 41382U 16014A   25305.53447728 -.00000265  00000+0  00000+0 0  9997
2 41382   0.0750  47.6981 0002501 183.9687 296.6573  1.00270436 35253
EUTELSAT 117 WEST B     
1 41589U 16038B   25305.51596350 -.00000001  00000+0  00000+0 0  9994
2 41589   0.0119 104.9165 0000070 297.2087  67.6937  1.00272783 34384
EUTELSAT 172B           
1 42741U 17029B   25304.78847730  .00000005  00000+0  00000+0 0  9998
2 42741   0.0202 174.9332 0000130 228.0730  93.2060  1.00270750 31443
EUTELSAT 7C             
1 44334U 19034B   25305.61190399  .00000060  00000+0  00000+0 0  9992
2 44334   0.0675 186.7409 0003261  15.1497  66.5657  1.00270446  4555
EUTELSAT 5 WEST B       
1 44624U 19067A   25305.60956398 -.00000031  00000+0  00000+0 0  9997
2 44624   0.0698  15.6542 0003286 207.1483  32.8141  1.00270917 22158
EUTELSAT KONNECT        
1 45027U 20005B   25304.75580380  .00000061  00000+0  00000+0 0  9990
2 45027   0.0643  91.0142 0001334 149.3223  79.2893  1.00272491 22036
